CCSDS_OEM_VERS = 1.0
CREATION_DATE  = 2017-05-11T11:35:25
ORIGINATOR     = GMAT USER

META_START
OBJECT_NAME          = MOPSSat_alt_35785_km_RAAN_180_069
OBJECT_ID            = SatId
CENTER_NAME          = Earth
REF_FRAME            = EME2000
TIME_SYSTEM          = UTC
START_TIME           = 2017-01-01T00:00:00.000
USEABLE_START_TIME   = 2017-01-01T00:00:00.000
USEABLE_STOP_TIME    = 2017-01-02T00:00:00.000
STOP_TIME            = 2017-01-02T00:00:00.000
INTERPOLATION        = Lagrange
INTERPOLATION_DEGREE = 7 
META_STOP


                                                                                   

2017-01-01T10:32:30.000   3.929545558361665e+04  -1.538804727064090e+04  -8.249368188199826e-01   1.121395660229021e+00   2.860017488052551e+00  -6.535790429400385e-05
2017-01-01T10:32:40.000   3.930665911875320e+04  -1.535944301768605e+04  -8.255903743725712e-01   1.119311250274087e+00   2.860832803748359e+00  -6.535319577953490e-05
2017-01-01T10:32:50.000   3.931784180674017e+04  -1.533083061939525e+04  -8.262438825530397e-01   1.117226248585189e+00   2.861646601361935e+00  -6.534843092186590e-05
2017-01-01T10:33:00.000   3.932900364166604e+04  -1.530221009095162e+04  -8.268973427978525e-01   1.115140656266397e+00   2.862458880465705e+00  -6.534360970025894e-05
2017-01-01T10:33:10.000   3.934014461764291e+04  -1.527358144751079e+04  -8.275507545439934e-01   1.113054474419775e+00   2.863269640633805e+00  -6.533873209402069e-05
2017-01-01T10:33:20.000   3.935126472883210e+04  -1.524494470413240e+04  -8.282041172305193e-01   1.110967704140390e+00   2.864078881443961e+00  -6.533379808249113e-05
2017-01-01T10:33:30.000   3.936236396940507e+04  -1.521629987588272e+04  -8.288574302962286e-01   1.108880346523781e+00   2.864886602474624e+00  -6.532880764506013e-05
2017-01-01T10:33:40.000   3.937344233353944e+04  -1.518764697784495e+04  -8.295106931794231e-01   1.106792402666722e+00   2.865692803304697e+00  -6.532376076117061e-05
2017-01-01T10:33:50.000   3.938449981540679e+04  -1.515898602514732e+04  -8.301639053172581e-01   1.104703873669260e+00   2.866497483512635e+00  -6.531865741031759e-05
2017-01-01T10:34:00.000   3.939553640916527e+04  -1.513031703298655e+04  -8.308170661452211e-01   1.102614760636430e+00   2.867300642675916e+00  -6.531349757205902e-05
2017-01-01T10:34:10.000   3.940655210899147e+04  -1.510164001654333e+04  -8.314701750990545e-01   1.100525064672094e+00   2.868102280373360e+00  -6.530828122599805e-05
2017-01-01T10:34:20.000   3.941754690893737e+04  -1.507295499136090e+04  -8.321232316061535e-01   1.098434786906527e+00   2.868902396174710e+00  -6.530300835185971e-05
2017-01-01T10:34:30.000   3.942852080310415e+04  -1.504426197288643e+04  -8.327762350959930e-01   1.096343928462998e+00   2.869700989653293e+00  -6.529767892939981e-05
2017-01-01T10:34:40.000   3.943947378557734e+04  -1.501556097664146e+04  -8.334291849962471e-01   1.094252490470193e+00   2.870498060381289e+00  -6.529229293843821e-05
2017-01-01T10:34:50.000   3.945040585067902e+04  -1.498685201756177e+04  -8.340820807478128e-01   1.092160474014108e+00   2.871293607948088e+00  -6.528685035873322e-05
2017-01-01T10:35:00.000   3.946131699271600e+04  -1.495813511065578e+04  -8.347349217898272e-01   1.090067880186026e+00   2.872087631941973e+00  -6.528135117010646e-05
2017-01-01T10:35:10.000   3.947220720603734e+04  -1.492941027085549e+04  -8.353877075630634e-01   1.087974710071657e+00   2.872880131954296e+00  -6.527579535241534e-05
2017-01-01T10:35:20.000   3.948307648489044e+04  -1.490067751338735e+04  -8.360404375014696e-01   1.085880964778167e+00   2.873671107569007e+00  -6.527018288561951e-05
2017-01-01T10:35:30.000   3.949392482352858e+04  -1.487193685349730e+04  -8.366931110384530e-01   1.083786645414130e+00   2.874460558370478e+00  -6.526451374973312e-05
2017-01-01T10:35:40.000   3.950475221620995e+04  -1.484318830645017e+04  -8.373457276068795e-01   1.081691753089498e+00   2.875248483943440e+00  -6.525878792482270e-05
2017-01-01T10:35:50.000   3.951555865709618e+04  -1.481443188780727e+04  -8.379982866328043e-01   1.079596288935820e+00   2.876034883865596e+00  -6.525300539106764e-05
2017-01-01T10:36:00.000   3.952634414038998e+04  -1.478566761305299e+04  -8.386507875439181e-01   1.077500254079036e+00   2.876819757717630e+00  -6.524716612868086e-05
2017-01-01T10:36:10.000   3.953710866028065e+04  -1.475689549774177e+04  -8.393032297662207e-01   1.075403649650184e+00   2.877603105079249e+00  -6.524127011793931e-05
2017-01-01T10:36:20.000   3.954785221118701e+04  -1.472811555684881e+04  -8.399556127387448e-01   1.073306476738090e+00   2.878384925546860e+00  -6.523531733905282e-05
2017-01-01T10:36:30.000   3.955857478751423e+04  -1.469932780541925e+04  -8.406079358988306e-01   1.071208736436672e+00   2.879165218715877e+00  -6.522930777229491e-05
2017-01-01T10:36:40.000   3.956927638370924e+04  -1.467053225842154e+04  -8.412601986854594e-01   1.069110429834254e+00   2.879943984184745e+00  -6.522324139797422e-05
2017-01-01T10:36:50.000   3.957995699411913e+04  -1.464172893111929e+04  -8.419124005307961e-01   1.067011558040665e+00   2.880721221544644e+00  -6.521711819650472e-05
2017-01-01T10:37:00.000   3.959061661309712e+04  -1.461291783879548e+04  -8.425645408664697e-01   1.064912122167138e+00   2.881496930387196e+00  -6.521093814835588e-05
2017-01-01T10:37:10.000   3.960125523500141e+04  -1.458409899675201e+04  -8.432166191235722e-01   1.062812123326283e+00   2.882271110304382e+00  -6.520470123404973e-05
2017-01-01T10:37:20.000   3.961187285409556e+04  -1.455527242058785e+04  -8.438686347263955e-01   1.060711562652351e+00   2.883043760881295e+00  -6.519840743422848e-05
2017-01-01T10:37:30.000   3.962246946468379e+04  -1.452643812582482e+04  -8.445205871008715e-01   1.058610441273965e+00   2.883814881705981e+00  -6.519205672956642e-05
2017-01-01T10:37:40.000   3.963304506105729e+04  -1.449759612805482e+04  -8.451724756712446e-01   1.056508760324854e+00   2.884584472365535e+00  -6.518564910080362e-05
2017-01-01T10:37:50.000   3.964359963773296e+04  -1.446874644228908e+04  -8.458242998747867e-01   1.054406520896424e+00   2.885352532463478e+00  -6.517918452860205e-05
2017-01-01T10:38:00.000   3.965413318921460e+04  -1.443988908360884e+04  -8.464760591470838e-01   1.052303724085184e+00   2.886119061602370e+00  -6.517266299368878e-05
2017-01-01T10:38:10.000   3.966464571004713e+04  -1.441102406701834e+04  -8.471277529253647e-01   1.050200370982023e+00   2.886884059387766e+00  -6.516608447682496e-05
2017-01-01T10:38:20.000   3.967513719467771e+04  -1.438215140781767e+04  -8.477793806400520e-01   1.048096462699387e+00   2.887647525418096e+00  -6.515944895888200e-05
2017-01-01T10:38:30.000   3.968560763755967e+04  -1.435327112132624e+04  -8.484309417210382e-01   1.045992000351121e+00   2.888409459292244e+00  -6.515275642078764e-05
2017-01-01T10:38:40.000   3.969605703315143e+04  -1.432438322288235e+04  -8.490824355976823e-01   1.043886985052445e+00   2.889169860609458e+00  -6.514600684352235e-05
2017-01-01T10:38:50.000   3.970648537581883e+04  -1.429548772812197e+04  -8.497338616925560e-01   1.041781417940265e+00   2.889928728962243e+00  -6.513920020819360e-05
2017-01-01T10:39:00.000   3.971689265996770e+04  -1.426658465260366e+04  -8.503852194298710e-01   1.039675300145841e+00   2.890686063946017e+00  -6.513233649593951e-05
2017-01-01T10:39:10.000   3.972727887999042e+04  -1.423767401195898e+04  -8.510365082320975e-01   1.037568632805746e+00   2.891441865155212e+00  -6.512541568796660e-05
2017-01-01T10:39:20.000   3.973764403050415e+04  -1.420875582122915e+04  -8.516877275349062e-01   1.035461417013535e+00   2.892196132200616e+00  -6.511843776538901e-05
2017-01-01T10:39:30.000   3.974798810611171e+04  -1.417983009553003e+04  -8.523388767721891e-01   1.033353653868194e+00   2.892948864691970e+00  -6.511140270938919e-05
2017-01-01T10:39:40.000   3.975831110146359e+04  -1.415089684988047e+04  -8.529899553799247e-01   1.031245344461638e+00   2.893700062242481e+00  -6.510431050117687e-05
2017-01-01T10:39:50.000   3.976861301109064e+04  -1.412195609966350e+04  -8.536409627857781e-01   1.029136489912312e+00   2.894449724456646e+00  -6.509716112209775e-05
2017-01-01T10:40:00.000   3.977889382954253e+04  -1.409300786024589e+04  -8.542918984176855e-01   1.027027091337474e+00   2.895197850940330e+00  -6.508995455354463e-05
2017-01-01T10:40:10.000   3.978915355135669e+04  -1.406405214706300e+04  -8.549427617019395e-01   1.024917149859374e+00   2.895944441298504e+00  -6.508269077697712e-05
2017-01-01T10:40:20.000   3.979939217106818e+04  -1.403508897559623e+04  -8.555935520637152e-01   1.022806666603613e+00   2.896689495135962e+00  -6.507536977391839e-05
2017-01-01T10:40:30.000   3.980960968321859e+04  -1.400611836134368e+04  -8.562442689277129e-01   1.020695642697004e+00   2.897433012057971e+00  -6.506799152594637e-05
2017-01-01T10:40:40.000   3.981980608235988e+04  -1.397714031980981e+04  -8.568949117183970e-01   1.018584079266818e+00   2.898174991670553e+00  -6.506055601469097e-05
2017-01-01T10:40:50.000   3.982998136309161e+04  -1.394815486640197e+04  -8.575454798623222e-01   1.016471977433247e+00   2.898915433583183e+00  -6.505306322181109e-05
2017-01-01T10:41:00.000   3.984013552003565e+04  -1.391916201649922e+04  -8.581959727865813e-01   1.014359338314415e+00   2.899654337406963e+00  -6.504551312900840e-05
2017-01-01T10:41:10.000   3.985026854783646e+04  -1.389016178545240e+04  -8.588463899188080e-01   1.012246163026388e+00   2.900391702754635e+00  -6.503790571802827e-05
2017-01-01T10:41:20.000   3.986038044118446e+04  -1.386115418851464e+04  -8.594967306887225e-01   1.010132452678105e+00   2.901127529242277e+00  -6.503024097063791e-05
2017-01-01T10:41:30.000   3.987047119478025e+04  -1.383213924094535e+04  -8.601469945258091e-01   1.008018208378958e+00   2.901861816486714e+00  -6.502251886865678e-05
